{"type": "FeatureCollection", "features": [ {"type": "Feature", "properties": {"norad_id": 33905, "name": "COSMOS 2251 DEB", "group": "cosmos-2251-debris", "lat": -71.68525851460234, "lon": -121.6562929103431, "alt_km": 781.9334247190345, "timestamp": "2025-12-22T04:03:39.561414+00:00", "meta": {"OBJECT_NAME": "COSMOS 2251 DEB", "OBJECT_ID": "1993-036DJ", "EPOCH": "2025-12-21T20:14:13.317216", "MEAN_MOTION": 14.35414382, "ECCENTRICITY": 0.00583, "INCLINATION": 73.8867, "RA_OF_ASC_NODE": 299.794, "ARG_OF_PERICENTER": 187.3595, "MEAN_ANOMALY": 206.8737, "EPHEMERIS_TYPE": 0, "CLASSIFICATION_TYPE": "U", "NORAD_CAT_ID": 33905, "ELEMENT_SET_NO": 999, "REV_AT_EPOCH": 87818, "BSTAR": 0.00043921, "MEAN_MOTION_DOT": 1.259e-05, "MEAN_MOTION_DDOT": 0}, "tle": {"line1": "1 33905U 93036DJ  25355.84320969  .00001259  00000+0  43921-3 0  9990", "line2": "2 33905  73.8867 299.7940 0058300 187.3595 206.8737 14.35414382878185"}}, "geometry": {"type": "Point", "coordinates": [-121.6562929103431, -71.68525851460234]}}, {"type": "Feature", "properties": {"norad_id": 33906, "name": "COSMOS 2251 DEB", "group": "cosmos-2251-debris", "lat": -0.8509298665750155, "lon": 123.7976250871093, "alt_km": 727.6771938484626, "timestamp": "2025-12-22T04:03:39.561424+00:00", "meta": {"OBJECT_NAME": "COSMOS 2251 DEB", "OBJECT_ID": "1993-036DK", "EPOCH": "2025-12-21T20:47:34.551168", "MEAN_MOTION": 14.57228442, "ECCENTRICITY": 0.0036926, "INCLINATION": 74.0308, "RA_OF_ASC_NODE": 304.1292, "ARG_OF_PERICENTER": 332.2365, "MEAN_ANOMALY": 60.7049, "EPHEMERIS_TYPE": 0, "CLASSIFICATION_TYPE": "U", "NORAD_CAT_ID": 33906, "ELEMENT_SET_NO": 999, "REV_AT_EPOCH": 88141, "BSTAR": 0.0014753, "MEAN_MOTION_DOT": 6.705e-05, "MEAN_MOTION_DDOT": 0}, "tle": {"line1": "1 33906U 93036DK  25355.86637212  .00006705  00000+0  14753-2 0  9996", "line2": "2 33906  74.0308 304.1292 0036926 332.2365  60.7049 14.57228442881413"}}, "geometry": {"type": "Point", "coordinates": [123.7976250871093, -0.8509298665750155]}}, {"type": "Feature", "properties": {"norad_id": 33907, "name": "COSMOS 2251 DEB", "group": "cosmos-2251-debris", "lat": -29.39703760719314, "lon": 7.265336640408117, "alt_km": 808.1962631156393, "timestamp": "2025-12-22T04:03:39.561434+00:00", "meta": {"OBJECT_NAME": "COSMOS 2251 DEB", "OBJECT_ID": "1993-036DL", "EPOCH": "2025-12-20T08:39:03.581568", "MEAN_MOTION": 14.30568878, "ECCENTRICITY": 0.01118938, "INCLINATION": 74.0693, "RA_OF_ASC_NODE": 19.8097, "ARG_OF_PERICENTER": 73.0053, "MEAN_ANOMALY": 306.2172, "EPHEMERIS_TYPE": 0, "CLASSIFICATION_TYPE": "U", "NORAD_CAT_ID": 33907, "ELEMENT_SET_NO": 999, "REV_AT_EPOCH": 86689, "BSTAR": 0.0011890274, "MEAN_MOTION_DOT": 3.297e-05, "MEAN_MOTION_DDOT": 0}, "tle": {"line1": "1 33907U 93036DL  25354.36045812  .00003297  00000+0  11890-2 0  9992", "line2": "2 33907  74.0693  19.8097 0111893  73.0053 306.2172 14.30568878866896"}}, "geometry": {"type": "Point", "coordinates": [7.265336640408117, -29.39703760719314]}}, {"type": "Feature", "properties": {"norad_id": 33908, "name": "COSMOS 2251 DEB", "group": "cosmos-2251-debris", "lat": -58.4765706780206, "lon": 160.81425152251978, "alt_km": 862.0994389219577, "timestamp": "2025-12-22T04:03:39.561445+00:00", "meta": {"OBJECT_NAME": "COSMOS 2251 DEB", "OBJECT_ID": "1993-036DM", "EPOCH": "2025-12-21T13:00:35.945280", "MEAN_MOTION": 14.0740282, "ECCENTRICITY": 0.0222455, "INCLINATION": 73.8362, "RA_OF_ASC_NODE": 190.1458, "ARG_OF_PERICENTER": 212.033, "MEAN_ANOMALY": 146.7127, "EPHEMERIS_TYPE": 0, "CLASSIFICATION_TYPE": "U", "NORAD_CAT_ID": 33908, "ELEMENT_SET_NO": 999, "REV_AT_EPOCH": 85597, "BSTAR": 0.0016138, "MEAN_MOTION_DOT": 3.376e-05, "MEAN_MOTION_DDOT": 0}, "tle": {"line1": "1 33908U 93036DM  25355.54208270  .00003376  00000+0  16138-2 0  9991", "line2": "2 33908  73.8362 190.1458 0222455 212.0330 146.7127 14.07402820855973"}}, "geometry": {"type": "Point", "coordinates": [160.81425152251978, -58.4765706780206]}}, {"type": "Feature", "properties": {"norad_id": 33911, "name": "COSMOS 2251 DEB", "group": "cosmos-2251-debris", "lat": -15.528160646174975, "lon": -31.96461450917898, "alt_km": 654.0472108781287, "timestamp": "2025-12-22T04:03:39.561455+00:00", "meta": {"OBJECT_NAME": "COSMOS 2251 DEB", "OBJECT_ID": "1993-036DQ", "EPOCH": "2025-12-21T04:38:28.888224", "MEAN_MOTION": 14.75044552, "ECCENTRICITY": 0.0014043, "INCLINATION": 74.0901, "RA_OF_ASC_NODE": 145.3897, "ARG_OF_PERICENTER": 79.9548, "MEAN_ANOMALY": 336.3353, "EPHEMERIS_TYPE": 0, "CLASSIFICATION_TYPE": "U", "NORAD_CAT_ID": 33911, "ELEMENT_SET_NO": 999, "REV_AT_EPOCH": 88769, "BSTAR": 0.0015038, "MEAN_MOTION_DOT": 0.00010127, "MEAN_MOTION_DDOT": 0}, "tle": {"line1": "1 33911U 93036DQ  25355.19338991  .00010127  00000+0  15038-2 0  9990", "line2": "2 33911  74.0901 145.3897 0014043  79.9548 336.3353 14.75044552887692"}}, "geometry": {"type": "Point", "coordinates": [-31.96461450917898, -15.528160646174975]}}, {"type": "Feature", "properties": {"norad_id": 33912, "name": "COSMOS 2251 DEB", "group": "cosmos-2251-debris", "lat": 20.328316147677004, "lon": 178.0508277979975, "alt_km": 724.1924085011897, "timestamp": "2025-12-22T04:03:39.561465+00:00", "meta": {"OBJECT_NAME": "COSMOS 2251 DEB", "OBJECT_ID": "1993-036DR", "EPOCH": "2025-12-21T18:06:38.906208", "MEAN_MOTION": 14.51941005, "ECCENTRICITY": 0.0011343, "INCLINATION": 74.0325, "RA_OF_ASC_NODE": 172.7426, "ARG_OF_PERICENTER": 251.6604, "MEAN_ANOMALY": 123.3498, "EPHEMERIS_TYPE": 0, "CLASSIFICATION_TYPE": "U", "NORAD_CAT_ID": 33912, "ELEMENT_SET_NO": 999, "REV_AT_EPOCH": 88564, "BSTAR": 0.00059485, "MEAN_MOTION_DOT": 2.375e-05, "MEAN_MOTION_DDOT": 0}, "tle": {"line1": "1 33912U 93036DR  25355.75461697  .00002375  00000+0  59485-3 0  9994", "line2": "2 33912  74.0325 172.7426 0011343 251.6604 123.3498 14.51941005885647"}}, "geometry": {"type": "Point", "coordinates": [178.0508277979975, 20.328316147677004]}}, {"type": "Feature", "properties": {"norad_id": 33913, "name": "COSMOS 2251 DEB", "group": "cosmos-2251-debris", "lat": -8.202952357873006, "lon": 163.61202010798684, "alt_km": 730.860557238364, "timestamp": "2025-12-22T04:03:39.561475+00:00", "meta": {"OBJECT_NAME": "COSMOS 2251 DEB", "OBJECT_ID": "1993-036DS", "EPOCH": "2025-12-21T20:23:06.406080", "MEAN_MOTION": 14.4851976, "ECCENTRICITY": 0.0048168, "INCLINATION": 74.0319, "RA_OF_ASC_NODE": 166.5767, "ARG_OF_PERICENTER": 267.4364, "MEAN_ANOMALY": 216.4744, "EPHEMERIS_TYPE": 0, "CLASSIFICATION_TYPE": "U", "NORAD_CAT_ID": 33913, "ELEMENT_SET_NO": 999, "REV_AT_EPOCH": 88589, "BSTAR": 0.00043625, "MEAN_MOTION_DOT": 1.634e-05, "MEAN_MOTION_DDOT": 0}, "tle": {"line1": "1 33913U 93036DS  25355.84937970  .00001634  00000+0  43625-3 0  9993", "line2": "2 33913  74.0319 166.5767 0048168 267.4364 216.4744 14.48519760885893"}}, "geometry": {"type": "Point", "coordinates": [163.61202010798684, -8.202952357873006]}}, {"type": "Feature", "properties": {"norad_id": 33914, "name": "COSMOS 2251 DEB", "group": "cosmos-2251-debris", "lat": -60.0811972694468, "lon": -150.7354263205205, "alt_km": 1176.1847252196822, "timestamp": "2025-12-22T04:03:39.561485+00:00", "meta": {"OBJECT_NAME": "COSMOS 2251 DEB", "OBJECT_ID": "1993-036DT", "EPOCH": "2025-12-21T18:57:58.285152", "MEAN_MOTION": 13.71989689, "ECCENTRICITY": 0.0300822, "INCLINATION": 74.091, "RA_OF_ASC_NODE": 0.1793, "ARG_OF_PERICENTER": 101.023, "MEAN_ANOMALY": 70.2049, "EPHEMERIS_TYPE": 0, "CLASSIFICATION_TYPE": "U", "NORAD_CAT_ID": 33914, "ELEMENT_SET_NO": 999, "REV_AT_EPOCH": 84205, "BSTAR": 0.0001955, "MEAN_MOTION_DOT": 2.26e-06, "MEAN_MOTION_DDOT": 0}, "tle": {"line1": "1 33914U 93036DT  25355.79025793  .00000226  00000+0  19550-3 0  9995", "line2": "2 33914  74.0910   0.1793 0300822 101.0230  70.2049 13.71989689842057"}}, "geometry": {"type": "Point", "coordinates": [-150.7354263205205, -60.0811972694468]}}, {"type": "Feature", "properties": {"norad_id": 33915, "name": "COSMOS 2251 DEB", "group": "cosmos-2251-debris", "lat": -16.380866529379418, "lon": 12.00121024203667, "alt_km": 820.065411239806, "timestamp": "2025-12-22T04:03:39.561496+00:00", "meta": {"OBJECT_NAME": "COSMOS 2251 DEB", "OBJECT_ID": "1993-036DU", "EPOCH": "2025-12-21T20:34:49.480032", "MEAN_MOTION": 14.35101503, "ECCENTRICITY": 0.0104068, "INCLINATION": 74.043, "RA_OF_ASC_NODE": 17.3968, "ARG_OF_PERICENTER": 107.4865, "MEAN_ANOMALY": 66.9031, "EPHEMERIS_TYPE": 0, "CLASSIFICATION_TYPE": "U", "NORAD_CAT_ID": 33915, "ELEMENT_SET_NO": 999, "REV_AT_EPOCH": 87888, "BSTAR": 0.00026775, "MEAN_MOTION_DOT": 7.86e-06, "MEAN_MOTION_DDOT": 0}, "tle": {"line1": "1 33915U 93036DU  25355.85751713  .00000786  00000+0  26775-3 0  9999", "line2": "2 33915  74.0430  17.3968 0104068 107.4865  66.9031 14.35101503878882"}}, "geometry": {"type": "Point", "coordinates": [12.00121024203667, -16.380866529379418]}}, {"type": "Feature", "properties": {"norad_id": 33916, "name": "COSMOS 2251 DEB", "group": "cosmos-2251-debris", "lat": 31.22976551897508, "lon": 35.079171114642264, "alt_km": 1230.472873324561, "timestamp": "2025-12-22T04:03:39.561505+00:00", "meta": {"OBJECT_NAME": "COSMOS 2251 DEB", "OBJECT_ID": "1993-036DV", "EPOCH": "2025-12-21T12:41:57.207840", "MEAN_MOTION": 13.68622825, "ECCENTRICITY": 0.03249487, "INCLINATION": 74.0521, "RA_OF_ASC_NODE": 26.1465, "ARG_OF_PERICENTER": 196.4141, "MEAN_ANOMALY": 284.9764, "EPHEMERIS_TYPE": 0, "CLASSIFICATION_TYPE": "U", "NORAD_CAT_ID": 33916, "ELEMENT_SET_NO": 999, "REV_AT_EPOCH": 84011, "BSTAR": 0.00028317539, "MEAN_MOTION_DOT": 3.29e-06, "MEAN_MOTION_DDOT": 0}, "tle": {"line1": "1 33916U 93036DV  25355.52913435  .00000329  00000+0  28318-3 0  9993", "line2": "2 33916  74.0521  26.1465 0324948 196.4141 284.9764 13.68622825840110"}}, "geometry": {"type": "Point", "coordinates": [35.079171114642264, 31.22976551897508]}}]}